{
"type": "FeatureCollection",
"name": "canal_cities",
"crs": { "type": "name", "properties": { "name": "urn:ogc:def:crs:OGC:1.3:CRS84" } },
"features": [
{ "type": "Feature", "properties": { "id": 23, "name": "洛阳", "name_en": "Luoyang", "function": 3 }, "geometry": { "type": "Point", "coordinates": [ 112.879297131606947, 34.676460307028442 ] } },
{ "type": "Feature", "properties": { "id": 2, "name": "开封", "name_en": "Kaifeng", "function": 3 }, "geometry": { "type": "Point", "coordinates": [ 114.539281906843939, 34.724745944725832 ] } },
{ "type": "Feature", "properties": { "id": 3, "name": "宿迁", "name_en": "Suqian", "function": 3 }, "geometry": { "type": "Point", "coordinates": [ 118.237813544677081, 33.988496476712967 ] } },
{ "type": "Feature", "properties": { "id": 4, "name": "商丘", "name_en": "Shangqiu", "function": 3 }, "geometry": { "type": "Point", "coordinates": [ 115.815474844695714, 34.382063860964273 ] } },
{ "type": "Feature", "properties": { "id": 5, "name": "淮安", "name_en": "Huaian", "function": 3 }, "geometry": { "type": "Point", "coordinates": [ 119.028075160385683, 33.594054919690507 ] } },
{ "type": "Feature", "properties": { "id": 6, "name": "扬州", "name_en": "Yangzhou", "function": 3 }, "geometry": { "type": "Point", "coordinates": [ 119.418528606142473, 32.369949127462384 ] } },
{ "type": "Feature", "properties": { "id": 7, "name": "苏州", "name_en": "Suzhou", "function": 3 }, "geometry": { "type": "Point", "coordinates": [ 120.530626627372811, 31.349094985588987 ] } },
{ "type": "Feature", "properties": { "id": 8, "name": "杭州", "name_en": "Hangzhou", "function": 2 }, "geometry": { "type": "Point", "coordinates": [ 120.167652512913904, 30.218685468979132 ] } },
{ "type": "Feature", "properties": { "id": 9, "name": "宁波", "name_en": "Ningbo", "function": 3 }, "geometry": { "type": "Point", "coordinates": [ 121.536365241169094, 29.877412036810117 ] } },
{ "type": "Feature", "properties": { "id": 10, "name": "徐州", "name_en": "Xuzhou", "function": 3 }, "geometry": { "type": "Point", "coordinates": [ 117.323438742895604, 34.267429977505344 ] } },
{ "type": "Feature", "properties": { "id": 11, "name": "济宁", "name_en": "Jining", "function": 3 }, "geometry": { "type": "Point", "coordinates": [ 116.54589503814276, 35.398038018873969 ] } },
{ "type": "Feature", "properties": { "id": 12, "name": "聊城", "name_en": "Liaocheng", "function": 3 }, "geometry": { "type": "Point", "coordinates": [ 116.018006009295348, 36.443396123019454 ] } },
{ "type": "Feature", "properties": { "id": 13, "name": "安阳", "name_en": "Anyang", "function": 3 }, "geometry": { "type": "Point", "coordinates": [ 114.71079470408084, 36.108398333751339 ] } },
{ "type": "Feature", "properties": { "id": 14, "name": "衡水", "name_en": "Hengshui", "function": 3 }, "geometry": { "type": "Point", "coordinates": [ 115.877205608909648, 37.753161014301064 ] } },
{ "type": "Feature", "properties": { "id": 15, "name": "德州", "name_en": "Dezhou", "function": 3 }, "geometry": { "type": "Point", "coordinates": [ 116.277954714943235, 37.464880928698832 ] } },
{ "type": "Feature", "properties": { "id": 16, "name": "沧州", "name_en": "Cangzhou", "function": 3 }, "geometry": { "type": "Point", "coordinates": [ 116.864912078858396, 38.331032946355904 ] } },
{ "type": "Feature", "properties": { "id": 17, "name": "天津", "name_en": "Tianjin", "function": 2 }, "geometry": { "type": "Point", "coordinates": [ 117.185031532283162, 39.148336540982655 ] } },
{ "type": "Feature", "properties": { "id": 18, "name": "北京", "name_en": "Beijing", "function": 1 }, "geometry": { "type": "Point", "coordinates": [ 116.25607391919884, 40.190094938814909 ] } },
{ "type": "Feature", "properties": { "id": 19, "name": "廊坊", "name_en": "Langfang", "function": 3 }, "geometry": { "type": "Point", "coordinates": [ 116.775383148798042, 39.564421168213464 ] } },
{ "type": "Feature", "properties": { "id": 20, "name": "郑州", "name_en": "Zhengzhou", "function": 2 }, "geometry": { "type": "Point", "coordinates": [ 113.956651553148205, 34.779644167227104 ] } },
{ "type": "Feature", "properties": { "id": 22, "name": "泰安", "name_en": "Taian", "function": 3 }, "geometry": { "type": "Point", "coordinates": [ 117.143811284181254, 36.178363037417796 ] } }
]
}
